[{"OBJECT_NAME":"STARLINK-34181","OBJECT_ID":"2025-111X","EPOCH":"2026-03-09T10:20:04.255584","MEAN_MOTION":15.27619505,"ECCENTRICITY":0.00015869,"INCLINATION":42.998,"RA_OF_ASC_NODE":79.3386,"ARG_OF_PERICENTER":254.8289,"MEAN_ANOMALY":105.2387,"EPHEMERIS_TYPE":0,"CLASSIFICATION_TYPE":"U","NORAD_CAT_ID":64144,"ELEMENT_SET_NO":999,"REV_AT_EPOCH":4542,"BSTAR":0.0011024311,"MEAN_MOTION_DOT":0.00030236,"MEAN_MOTION_DDOT":0},{"OBJECT_NAME":"TRANSPORTER-1 OBJECT AA","OBJECT_ID":"2021-006AA","EPOCH":"2026-03-09T22:58:14.761920","MEAN_MOTION":15.29982294,"ECCENTRICITY":0.00086604,"INCLINATION":97.2381,"RA_OF_ASC_NODE":112.457,"ARG_OF_PERICENTER":185.709,"MEAN_ANOMALY":174.4054,"EPHEMERIS_TYPE":0,"CLASSIFICATION_TYPE":"U","NORAD_CAT_ID":47437,"ELEMENT_SET_NO":999,"REV_AT_EPOCH":28414,"BSTAR":0.0002197941,"MEAN_MOTION_DOT":6.312e-5,"MEAN_MOTION_DDOT":0}]
